CCSDS_OMM_VERS = 2.0
CREATION_DATE  = 
ORIGINATOR     = 

OBJECT_NAME    = SL-14 R/B
OBJECT_ID      = 1986-046B
CENTER_NAME    = EARTH
REF_FRAME      = TEME
TIME_SYSTEM    = UTC
MEAN_ELEMENT_THEORY = SGP/SGP4

EPOCH          = 2026-02-08T15:24:59.845248
MEAN_MOTION    = 14.85562080
ECCENTRICITY   = .0022216
INCLINATION    = 82.4815
RA_OF_ASC_NODE = 107.6320
ARG_OF_PERICENTER = 327.2933
MEAN_ANOMALY   = 32.6906

EPHEMERIS_TYPE = 0
CLASSIFICATION_TYPE = U
NORAD_CAT_ID   = 16792
ELEMENT_SET_NO = 999
REV_AT_EPOCH   = 12209
BSTAR          = .56474E-4
MEAN_MOTION_DOT = .514E-5
MEAN_MOTION_DDOT = 0

CCSDS_OMM_VERS = 2.0
CREATION_DATE  = 
ORIGINATOR     = 

OBJECT_NAME    = SL-14 R/B
OBJECT_ID      = 1986-055B
CENTER_NAME    = EARTH
REF_FRAME      = TEME
TIME_SYSTEM    = UTC
MEAN_ELEMENT_THEORY = SGP/SGP4

EPOCH          = 2026-02-08T20:26:56.568768
MEAN_MOTION    = 14.85612242
ECCENTRICITY   = .00203071
INCLINATION    = 82.5234
RA_OF_ASC_NODE = 153.7703
ARG_OF_PERICENTER = 69.4385
MEAN_ANOMALY   = 50.9748

EPHEMERIS_TYPE = 0
CLASSIFICATION_TYPE = U
NORAD_CAT_ID   = 16882
ELEMENT_SET_NO = 999
REV_AT_EPOCH   = 11508
BSTAR          = .71743534E-4
MEAN_MOTION_DOT = .647E-5
MEAN_MOTION_DDOT = 0

CCSDS_OMM_VERS = 2.0
CREATION_DATE  = 
ORIGINATOR     = 

OBJECT_NAME    = AJISAI (EGS)
OBJECT_ID      = 1986-061A
CENTER_NAME    = EARTH
REF_FRAME      = TEME
TIME_SYSTEM    = UTC
MEAN_ELEMENT_THEORY = SGP/SGP4

EPOCH          = 2026-02-08T21:26:18.482208
MEAN_MOTION    = 12.44515324
ECCENTRICITY   = .00112356
INCLINATION    = 50.0073
RA_OF_ASC_NODE = 181.8961
ARG_OF_PERICENTER = 212.8165
MEAN_ANOMALY   = 252.2431

EPHEMERIS_TYPE = 0
CLASSIFICATION_TYPE = U
NORAD_CAT_ID   = 16908
ELEMENT_SET_NO = 999
REV_AT_EPOCH   = 46441
BSTAR          = .83209029E-4
MEAN_MOTION_DOT = -.86E-6
MEAN_MOTION_DDOT = 0

CCSDS_OMM_VERS = 2.0
CREATION_DATE  = 
ORIGINATOR     = 

OBJECT_NAME    = COSMOS 1812
OBJECT_ID      = 1987-003A
CENTER_NAME    = EARTH
REF_FRAME      = TEME
TIME_SYSTEM    = UTC
MEAN_ELEMENT_THEORY = SGP/SGP4

EPOCH          = 2026-02-08T19:15:40.029696
MEAN_MOTION    = 15.95154267
ECCENTRICITY   = .00011573
INCLINATION    = 82.4777
RA_OF_ASC_NODE = 228.3872
ARG_OF_PERICENTER = 324.5567
MEAN_ANOMALY   = 35.5631

EPHEMERIS_TYPE = 0
CLASSIFICATION_TYPE = U
NORAD_CAT_ID   = 17295
ELEMENT_SET_NO = 999
REV_AT_EPOCH   = 13984
BSTAR          = .72906082E-3
MEAN_MOTION_DOT = .283236E-2
MEAN_MOTION_DDOT = .29762199E-4

CCSDS_OMM_VERS = 2.0
CREATION_DATE  = 
ORIGINATOR     = 

OBJECT_NAME    = SL-14 R/B
OBJECT_ID      = 1987-024B
CENTER_NAME    = EARTH
REF_FRAME      = TEME
TIME_SYSTEM    = UTC
MEAN_ELEMENT_THEORY = SGP/SGP4

EPOCH          = 2026-02-08T16:28:21.222336
MEAN_MOTION    = 14.86104133
ECCENTRICITY   = .00181813
INCLINATION    = 82.5291
RA_OF_ASC_NODE = 120.0231
ARG_OF_PERICENTER = 1.8184
MEAN_ANOMALY   = 358.3095

EPHEMERIS_TYPE = 0
CLASSIFICATION_TYPE = U
NORAD_CAT_ID   = 17567
ELEMENT_SET_NO = 999
REV_AT_EPOCH   = 8382
BSTAR          = .5948795E-4
MEAN_MOTION_DOT = .547E-5
MEAN_MOTION_DDOT = 0

CCSDS_OMM_VERS = 2.0
CREATION_DATE  = 
ORIGINATOR     = 

OBJECT_NAME    = COSMOS 1833
OBJECT_ID      = 1987-027A
CENTER_NAME    = EARTH
REF_FRAME      = TEME
TIME_SYSTEM    = UTC
MEAN_ELEMENT_THEORY = SGP/SGP4

EPOCH          = 2026-02-08T09:53:02.713344
MEAN_MOTION    = 14.13056433
ECCENTRICITY   = .00248892
INCLINATION    = 70.9213
RA_OF_ASC_NODE = 27.5496
ARG_OF_PERICENTER = 253.7329
MEAN_ANOMALY   = 106.1054

EPHEMERIS_TYPE = 0
CLASSIFICATION_TYPE = U
NORAD_CAT_ID   = 17589
ELEMENT_SET_NO = 999
REV_AT_EPOCH   = 618
BSTAR          = .54930191E-4
MEAN_MOTION_DOT = .55E-6
MEAN_MOTION_DDOT = 0

CCSDS_OMM_VERS = 2.0
CREATION_DATE  = 
ORIGINATOR     = 

OBJECT_NAME    = SL-16 R/B
OBJECT_ID      = 1987-027B
CENTER_NAME    = EARTH
REF_FRAME      = TEME
TIME_SYSTEM    = UTC
MEAN_ELEMENT_THEORY = SGP/SGP4

EPOCH          = 2026-02-08T23:08:42.487296
MEAN_MOTION    = 14.17163332
ECCENTRICITY   = .0005079
INCLINATION    = 71.0049
RA_OF_ASC_NODE = 337.0247
ARG_OF_PERICENTER = 192.9723
MEAN_ANOMALY   = 167.1271

EPHEMERIS_TYPE = 0
CLASSIFICATION_TYPE = U
NORAD_CAT_ID   = 17590
ELEMENT_SET_NO = 999
REV_AT_EPOCH   = 1127
BSTAR          = -.77518575E-4
MEAN_MOTION_DOT = -.204E-5
MEAN_MOTION_DDOT = 0

CCSDS_OMM_VERS = 2.0
CREATION_DATE  = 
ORIGINATOR     = 

OBJECT_NAME    = SL-14 R/B
OBJECT_ID      = 1987-038B
CENTER_NAME    = EARTH
REF_FRAME      = TEME
TIME_SYSTEM    = UTC
MEAN_ELEMENT_THEORY = SGP/SGP4

EPOCH          = 2026-02-08T20:50:36.169152
MEAN_MOTION    = 14.85340627
ECCENTRICITY   = .00177004
INCLINATION    = 82.5041
RA_OF_ASC_NODE = 323.9518
ARG_OF_PERICENTER = 259.3892
MEAN_ANOMALY   = 100.5331

EPHEMERIS_TYPE = 0
CLASSIFICATION_TYPE = U
NORAD_CAT_ID   = 17912
ELEMENT_SET_NO = 999
REV_AT_EPOCH   = 7495
BSTAR          = .66238967E-4
MEAN_MOTION_DOT = .595E-5
MEAN_MOTION_DDOT = 0

CCSDS_OMM_VERS = 2.0
CREATION_DATE  = 
ORIGINATOR     = 

OBJECT_NAME    = COSMOS 1844
OBJECT_ID      = 1987-041A
CENTER_NAME    = EARTH
REF_FRAME      = TEME
TIME_SYSTEM    = UTC
MEAN_ELEMENT_THEORY = SGP/SGP4

EPOCH          = 2026-02-08T13:10:08.282208
MEAN_MOTION    = 14.14540416
ECCENTRICITY   = .0028849
INCLINATION    = 70.8980
RA_OF_ASC_NODE = 95.6449
ARG_OF_PERICENTER = 64.7106
MEAN_ANOMALY   = 295.6999

EPHEMERIS_TYPE = 0
CLASSIFICATION_TYPE = U
NORAD_CAT_ID   = 17973
ELEMENT_SET_NO = 999
REV_AT_EPOCH   = 99946
BSTAR          = .22906E-3
MEAN_MOTION_DOT = .393E-5
MEAN_MOTION_DDOT = 0

CCSDS_OMM_VERS = 2.0
CREATION_DATE  = 
ORIGINATOR     = 

OBJECT_NAME    = SL-14 R/B
OBJECT_ID      = 1987-055B
CENTER_NAME    = EARTH
REF_FRAME      = TEME
TIME_SYSTEM    = UTC
MEAN_ELEMENT_THEORY = SGP/SGP4

EPOCH          = 2026-02-08T09:05:41.013024
MEAN_MOTION    = 14.85592752
ECCENTRICITY   = .00221968
INCLINATION    = 82.4996
RA_OF_ASC_NODE = 16.6517
ARG_OF_PERICENTER = 109.0329
MEAN_ANOMALY   = 251.3295

EPHEMERIS_TYPE = 0
CLASSIFICATION_TYPE = U
NORAD_CAT_ID   = 18153
ELEMENT_SET_NO = 999
REV_AT_EPOCH   = 6558
BSTAR          = .74867628E-4
MEAN_MOTION_DOT = .675E-5
MEAN_MOTION_DDOT = 0

CCSDS_OMM_VERS = 2.0
CREATION_DATE  = 
ORIGINATOR     = 

OBJECT_NAME    = COSMOS 1867
OBJECT_ID      = 1987-060A
CENTER_NAME    = EARTH
REF_FRAME      = TEME
TIME_SYSTEM    = UTC
MEAN_ELEMENT_THEORY = SGP/SGP4

EPOCH          = 2026-02-08T09:05:29.514912
MEAN_MOTION    = 14.31498233
ECCENTRICITY   = .00141005
INCLINATION    = 65.0111
RA_OF_ASC_NODE = 28.7868
ARG_OF_PERICENTER = 276.4738
MEAN_ANOMALY   = 83.4741

EPHEMERIS_TYPE = 0
CLASSIFICATION_TYPE = U
NORAD_CAT_ID   = 18187
ELEMENT_SET_NO = 999
REV_AT_EPOCH   = 1574
BSTAR          = .38382227E-4
MEAN_MOTION_DOT = .2E-7
MEAN_MOTION_DDOT = 0

CCSDS_OMM_VERS = 2.0
CREATION_DATE  = 
ORIGINATOR     = 

OBJECT_NAME    = SL-14 R/B
OBJECT_ID      = 1988-001B
CENTER_NAME    = EARTH
REF_FRAME      = TEME
TIME_SYSTEM    = UTC
MEAN_ELEMENT_THEORY = SGP/SGP4

EPOCH          = 2026-02-08T15:24:00.307008
MEAN_MOTION    = 14.85492578
ECCENTRICITY   = .00174913
INCLINATION    = 82.5107
RA_OF_ASC_NODE = 222.6820
ARG_OF_PERICENTER = 339.0793
MEAN_ANOMALY   = 20.9706

EPHEMERIS_TYPE = 0
CLASSIFICATION_TYPE = U
NORAD_CAT_ID   = 18749
ELEMENT_SET_NO = 999
REV_AT_EPOCH   = 3771
BSTAR          = .63468556E-4
MEAN_MOTION_DOT = .573E-5
MEAN_MOTION_DDOT = 0

