SL-14 R/B               
1 16792U 86046B   26039.64235932  .00000514  00000+0  56474-4 0  9992
2 16792  82.4815 107.6320 0022216 327.2933  32.6906 14.85562080122095
SL-14 R/B               
1 16882U 86055B   26039.85204362  .00000647  00000+0  71744-4 0  9992
2 16882  82.5234 153.7703 0020307  69.4385  50.9748 14.85612242115087
AJISAI (EGS)            
1 16908U 86061A   26039.89326947 -.00000086  00000+0  83209-4 0  9993
2 16908  50.0073 181.8961 0011235 212.8165 252.2431 12.44515324464411
COSMOS 1812             
1 17295U 87003A   26039.80254664  .00283236  29762-4  72906-3 0  9998
2 17295  82.4777 228.3872 0001157 324.5567  35.5631 15.95154267139842
SL-14 R/B               
1 17567U 87024B   26039.68635674  .00000547  00000+0  59488-4 0  9995
2 17567  82.5291 120.0231 0018181   1.8184 358.3095 14.86104133 83820
COSMOS 1833             
1 17589U 87027A   26039.41183696  .00000055  00000+0  54930-4 0  9996
2 17589  70.9213  27.5496 0024889 253.7329 106.1054 14.13056433  6181
SL-16 R/B               
1 17590U 87027B   26039.96438064 -.00000204  00000+0 -77519-4 0  9996
2 17590  71.0049 337.0247 0005079 192.9723 167.1271 14.17163332 11272
SL-14 R/B               
1 17912U 87038B   26039.86847418  .00000595  00000+0  66239-4 0  9990
2 17912  82.5041 323.9518 0017700 259.3892 100.5331 14.85340627 74954
COSMOS 1844             
1 17973U 87041A   26039.54870697  .00000393  00000+0  22906-3 0  9999
2 17973  70.8980  95.6449 0028849  64.7106 295.6999 14.14540416999469
SL-14 R/B               
1 18153U 87055B   26039.37894691  .00000675  00000+0  74868-4 0  9994
2 18153  82.4996  16.6517 0022196 109.0329 251.3295 14.85592752 65587
COSMOS 1867             
1 18187U 87060A   26039.37881383  .00000002  00000+0  38382-4 0  9996
2 18187  65.0111  28.7868 0014100 276.4738  83.4741 14.31498233 15745
SL-14 R/B               
1 18749U 88001B   26039.64167022  .00000573  00000+0  63469-4 0  9990
2 18749  82.5107 222.6820 0017491 339.0793  20.9706 14.85492578 37717
